start=new Date('2021-12-03T00:00:00.000Z').valueOf();
sats=[{"CLASSIFICATION_TYPE":"U","ECCENTRICITY":"0.00017410","MEAN_ANOMALY":"293.6244","PERIOD":"95.593","COUNTRY_CODE":"US","DECAY_DATE":null,"BSTAR":"-0.00005547600000","TLE_LINE1":"1 47821U 21018AL  21336.48377390 -.00001108  00000-0 -55476-4 0  9993","GP_ID":"190945510","MEAN_MOTION_DOT":"-0.00001108","SEMIMAJOR_AXIS":"6925.378","EPOCH":"2021-12-02T11:36:38.064960","REV_AT_EPOCH":"4173","SITE":"AFETR","OBJECT_TYPE":"PAYLOAD","EPHEMERIS_TYPE":"0","APOAPSIS":"548.448","MEAN_MOTION_DDOT":"0.0000000000000","INCLINATION":"53.0553","TIME_SYSTEM":"UTC","CENTER_NAME":"EARTH","FILE":"3230859","LAUNCH_DATE":"2021-03-11","MEAN_ELEMENT_THEORY":"SGP4","RCS_SIZE":"LARGE","TLE_LINE2":"2 47821  53.0553  46.6876 0001741  66.4928 293.6244 15.06390525 41731","PERIAPSIS":"546.037","ELEMENT_SET_NO":"999","ARG_OF_PERICENTER":"66.4928","MEAN_MOTION":"15.06390525","RA_OF_ASC_NODE":"46.6876","REF_FRAME":"TEME","NORAD_CAT_ID":"47821","OBJECT_NAME":"STARLINK-2406","OBJECT_ID":"2021-018AL"},{"TLE_LINE1":"1 47822U 21018AM  21336.62752838  .00004727  00000-0  33595-3 0  9999","GP_ID":"190947622","BSTAR":"0.00033595000000","OBJECT_TYPE":"PAYLOAD","EPOCH":"2021-12-02T15:03:38.452032","SEMIMAJOR_AXIS":"6925.330","MEAN_MOTION_DOT":"0.00004727","REV_AT_EPOCH":"4128","SITE":"AFETR","ECCENTRICITY":"0.00012880","CLASSIFICATION_TYPE":"U","DECAY_DATE":null,"PERIOD":"95.592","COUNTRY_CODE":"US","MEAN_ANOMALY":"288.9354","PERIAPSIS":"546.303","ARG_OF_PERICENTER":"71.1775","ELEMENT_SET_NO":"999","RCS_SIZE":"LARGE","TLE_LINE2":"2 47822  53.0560  56.0258 0001288  71.1775 288.9354 15.06406136 41283","LAUNCH_DATE":"2021-03-11","MEAN_ELEMENT_THEORY":"SGP4","OBJECT_ID":"2021-018AM","REF_FRAME":"TEME","OBJECT_NAME":"STARLINK-2407","NORAD_CAT_ID":"47822","MEAN_MOTION":"15.06406136","RA_OF_ASC_NODE":"56.0258","APOAPSIS":"548.087","EPHEMERIS_TYPE":"0","FILE":"3230927","CENTER_NAME":"EARTH","TIME_SYSTEM":"UTC","INCLINATION":"53.0560","MEAN_MOTION_DDOT":"0.0000000000000"},{"OBJECT_ID":"2021-018AN","MEAN_MOTION":"15.06373382","RA_OF_ASC_NODE":"46.2627","OBJECT_NAME":"STARLINK-2408","NORAD_CAT_ID":"47823","REF_FRAME":"TEME","TLE_LINE2":"2 47823  53.0571  46.2627 0001542  71.4173 288.6983 15.06373382 41411","RCS_SIZE":"LARGE","ELEMENT_SET_NO":"999","ARG_OF_PERICENTER":"71.4173","PERIAPSIS":"546.227","MEAN_ELEMENT_THEORY":"SGP4","LAUNCH_DATE":"2021-03-11","CENTER_NAME":"EARTH","FILE":"3231059","INCLINATION":"53.0571","MEAN_MOTION_DDOT":"0.0000000000000","TIME_SYSTEM":"UTC","EPHEMERIS_TYPE":"0","APOAPSIS":"548.363","OBJECT_TYPE":"PAYLOAD","REV_AT_EPOCH":"4141","SITE":"AFETR","MEAN_MOTION_DOT":"0.00004857","SEMIMAJOR_AXIS":"6925.430","EPOCH":"2021-12-02T13:50:41.048736","GP_ID":"190950953","TLE_LINE1":"1 47823U 21018AN  21336.57686399  .00004857  00000-0  34495-3 0  9996","BSTAR":"0.00034495000000","COUNTRY_CODE":"US","PERIOD":"95.594","DECAY_DATE":null,"MEAN_ANOMALY":"288.6983","ECCENTRICITY":"0.00015420","CLASSIFICATION_TYPE":"U"},{"TLE_LINE2":"2 47824  53.0549  46.6154 0001566  66.9125 293.2029 15.06392088 41404","RCS_SIZE":"LARGE","ARG_OF_PERICENTER":"66.9125","ELEMENT_SET_NO":"999","PERIAPSIS":"546.153","LAUNCH_DATE":"2021-03-11","MEAN_ELEMENT_THEORY":"SGP4","OBJECT_ID":"2021-018AP","RA_OF_ASC_NODE":"46.6154","MEAN_MOTION":"15.06392088","OBJECT_NAME":"STARLINK-2409","NORAD_CAT_ID":"47824","REF_FRAME":"TEME","EPHEMERIS_TYPE":"0","APOAPSIS":"548.322","CENTER_NAME":"EARTH","FILE":"3231059","MEAN_MOTION_DDOT":"0.0000000000000","INCLINATION":"53.0549","TIME_SYSTEM":"UTC","GP_ID":"190950505","TLE_LINE1":"1 47824U 21018AP  21336.49945384  .00001080  00000-0  91421-4 0  9998","BSTAR":"0.00009142100000","OBJECT_TYPE":"PAYLOAD","REV_AT_EPOCH":"4140","SITE":"AFETR","SEMIMAJOR_AXIS":"6925.373","EPOCH":"2021-12-02T11:59:12.811776","MEAN_MOTION_DOT":"0.00001080","CLASSIFICATION_TYPE":"U","ECCENTRICITY":"0.00015660","COUNTRY_CODE":"US","PERIOD":"95.593","DECAY_DATE":null,"MEAN_ANOMALY":"293.2029"},{"ECCENTRICITY":"0.00013140","CLASSIFICATION_TYPE":"U","MEAN_ANOMALY":"280.9616","COUNTRY_CODE":"US","PERIOD":"95.593","DECAY_DATE":null,"BSTAR":"0.00005876400000","GP_ID":"190945010","TLE_LINE1":"1 47825U 21018AQ  21336.45154023  .00000594  00000-0  58764-4 0  9999","SITE":"AFETR","REV_AT_EPOCH":"4173","SEMIMAJOR_AXIS":"6925.385","MEAN_MOTION_DOT":"0.00000594","EPOCH":"2021-12-02T10:50:13.075872","OBJECT_TYPE":"PAYLOAD","EPHEMERIS_TYPE":"0","APOAPSIS":"548.160","MEAN_MOTION_DDOT":"0.0000000000000","INCLINATION":"53.0577","TIME_SYSTEM":"UTC","CENTER_NAME":"EARTH","FILE":"3230859","MEAN_ELEMENT_THEORY":"SGP4","LAUNCH_DATE":"2021-03-11","TLE_LINE2":"2 47825  53.0577  46.8113 0001314  79.1521 280.9616 15.06387990 41737","RCS_SIZE":"LARGE","ARG_OF_PERICENTER":"79.1521","ELEMENT_SET_NO":"999","PERIAPSIS":"546.340","RA_OF_ASC_NODE":"46.8113","MEAN_MOTION":"15.06387990","NORAD_CAT_ID":"47825","OBJECT_NAME":"STARLINK-2410","REF_FRAME":"TEME","OBJECT_ID":"2021-018AQ"},{"EPHEMERIS_TYPE":"0","APOAPSIS":"548.082","CENTER_NAME":"EARTH","FILE":"3230859","INCLINATION":"53.0566","MEAN_MOTION_DDOT":"0.0000000000000","TIME_SYSTEM":"UTC","RCS_SIZE":"LARGE","TLE_LINE2":"2 47826  53.0566  46.2464 0001237  64.0917 296.0200 15.06396201 41759","PERIAPSIS":"546.369","ARG_OF_PERICENTER":"64.0917","ELEMENT_SET_NO":"999","MEAN_ELEMENT_THEORY":"SGP4","LAUNCH_DATE":"2021-03-11","OBJECT_ID":"2021-018AR","RA_OF_ASC_NODE":"46.2464","MEAN_MOTION":"15.06396201","REF_FRAME":"TEME","NORAD_CAT_ID":"47826","OBJECT_NAME":"STARLINK-2411","CLASSIFICATION_TYPE":"U","ECCENTRICITY":"0.00012370","PERIOD":"95.592","COUNTRY_CODE":"US","DECAY_DATE":null,"MEAN_ANOMALY":"296.0200","TLE_LINE1":"1 47826U 21018AR  21336.58054027  .00000851  00000-0  76054-4 0  9995","GP_ID":"190943758","BSTAR":"0.00007605400000","OBJECT_TYPE":"PAYLOAD","EPOCH":"2021-12-02T13:55:58.679328","SEMIMAJOR_AXIS":"6925.360","MEAN_MOTION_DOT":"0.00000851","REV_AT_EPOCH":"4175","SITE":"AFETR"},{"CLASSIFICATION_TYPE":"U","ECCENTRICITY":"0.00014490","MEAN_ANOMALY":"291.9657","DECAY_DATE":null,"PERIOD":"95.592","COUNTRY_CODE":"US","BSTAR":"0.00009750600000","TLE_LINE1":"1 47827U 21018AS  21336.47361899  .00001171  00000-0  97506-4 0  9993","GP_ID":"190944008","SEMIMAJOR_AXIS":"6925.345","EPOCH":"2021-12-02T11:22:00.680736","MEAN_MOTION_DOT":"0.00001171","REV_AT_EPOCH":"4193","SITE":"AFETR","OBJECT_TYPE":"PAYLOAD","APOAPSIS":"548.214","EPHEMERIS_TYPE":"0","TIME_SYSTEM":"UTC","INCLINATION":"53.0561","MEAN_MOTION_DDOT":"0.0000000000000","FILE":"3230859","CENTER_NAME":"EARTH","LAUNCH_DATE":"2021-03-11","MEAN_ELEMENT_THEORY":"SGP4","PERIAPSIS":"546.207","ARG_OF_PERICENTER":"68.1486","ELEMENT_SET_NO":"999","RCS_SIZE":"LARGE","TLE_LINE2":"2 47827  53.0561  36.7311 0001449  68.1486 291.9657 15.06401003 41938","REF_FRAME":"TEME","NORAD_CAT_ID":"47827","OBJECT_NAME":"STARLINK-2413","MEAN_MOTION":"15.06401003","RA_OF_ASC_NODE":"36.7311","OBJECT_ID":"2021-018AS"},{"APOAPSIS":"548.117","EPHEMERIS_TYPE":"0","TIME_SYSTEM":"UTC","INCLINATION":"53.0575","MEAN_MOTION_DDOT":"0.0000000000000","FILE":"3230859","CENTER_NAME":"EARTH","MEAN_ELEMENT_THEORY":"SGP4","LAUNCH_DATE":"2021-03-11","ELEMENT_SET_NO":"999","ARG_OF_PERICENTER":"70.1448","PERIAPSIS":"546.290","TLE_LINE2":"2 47828  53.0575  56.6123 0001319  70.1448 289.9683 15.06403428 41606","RCS_SIZE":"LARGE","NORAD_CAT_ID":"47828","OBJECT_NAME":"STARLINK-2415","REF_FRAME":"TEME","MEAN_MOTION":"15.06403428","RA_OF_ASC_NODE":"56.6123","OBJECT_ID":"2021-018AT","ECCENTRICITY":"0.00013190","CLASSIFICATION_TYPE":"U","MEAN_ANOMALY":"289.9683","DECAY_DATE":null,"COUNTRY_CODE":"US","PERIOD":"95.592","BSTAR":"0.00008073000000","GP_ID":"190944760","TLE_LINE1":"1 47828U 21018AT  21336.49851761  .00000921  00000-0  80730-4 0  9991","SITE":"AFETR","REV_AT_EPOCH":"4160","MEAN_MOTION_DOT":"0.00000921","SEMIMAJOR_AXIS":"6925.338","EPOCH":"2021-12-02T11:57:51.921504","OBJECT_TYPE":"PAYLOAD"},{"CLASSIFICATION_TYPE":"U","ECCENTRICITY":"0.00013630","DECAY_DATE":null,"PERIOD":"95.593","COUNTRY_CODE":"US","MEAN_ANOMALY":"284.4963","TLE_LINE1":"1 47829U 21018AU  21336.51696099  .00001112  00000-0  93585-4 0  9991","GP_ID":"190945511","BSTAR":"0.00009358500000","OBJECT_TYPE":"PAYLOAD","SEMIMAJOR_AXIS":"6925.378","EPOCH":"2021-12-02T12:24:25.429536","MEAN_MOTION_DOT":"0.00001112","SITE":"AFETR","REV_AT_EPOCH":"4159","APOAPSIS":"548.187","EPHEMERIS_TYPE":"0","FILE":"3230859","CENTER_NAME":"EARTH","TIME_SYSTEM":"UTC","INCLINATION":"53.0565","MEAN_MOTION_DDOT":"0.0000000000000","PERIAPSIS":"546.299","ELEMENT_SET_NO":"999","ARG_OF_PERICENTER":"75.6177","RCS_SIZE":"MEDIUM","TLE_LINE2":"2 47829  53.0565  56.5329 0001363  75.6177 284.4963 15.06390425 41592","MEAN_ELEMENT_THEORY":"SGP4","LAUNCH_DATE":"2021-03-11","OBJECT_ID":"2021-018AU","REF_FRAME":"TEME","NORAD_CAT_ID":"47829","OBJECT_NAME":"STARLINK-2416","MEAN_MOTION":"15.06390425","RA_OF_ASC_NODE":"56.5329"},{"OBJECT_ID":"2021-018AV","REF_FRAME":"TEME","NORAD_CAT_ID":"47830","OBJECT_NAME":"STARLINK-2419","RA_OF_ASC_NODE":"56.5515","MEAN_MOTION":"15.06395518","PERIAPSIS":"546.441","ELEMENT_SET_NO":"999","ARG_OF_PERICENTER":"77.0743","RCS_SIZE":"MEDIUM","TLE_LINE2":"2 47830  53.0561  56.5515 0001136  77.0743 283.0373 15.06395518 41598","LAUNCH_DATE":"2021-03-11","MEAN_ELEMENT_THEORY":"SGP4","FILE":"3230859","CENTER_NAME":"EARTH","TIME_SYSTEM":"UTC","MEAN_MOTION_DDOT":"0.0000000000000","INCLINATION":"53.0561","APOAPSIS":"548.014","EPHEMERIS_TYPE":"0","OBJECT_TYPE":"PAYLOAD","SEMIMAJOR_AXIS":"6925.362","MEAN_MOTION_DOT":"0.00000095","EPOCH":"2021-12-02T12:19:06.690432","REV_AT_EPOCH":"4159","SITE":"AFETR","TLE_LINE1":"1 47830U 21018AV  21336.51327188  .00000095  00000-0  25265-4 0  9992","GP_ID":"190944259","BSTAR":"0.00002526500000","DECAY_DATE":null,"PERIOD":"95.592","COUNTRY_CODE":"US","MEAN_ANOMALY":"283.0373","CLASSIFICATION_TYPE":"U","ECCENTRICITY":"0.00011360"}];
